{"fetched_at":"2026-03-29T16:36:15Z","count":15609,"tles":[{"name":"AETHER-6","line1":"1 67377U 26004Q   26087.93776520  .00003313  00000+0  36591-3 0  9990","line2":"2 67377  97.8033  87.8729 0005857  41.6201 318.5460 14.88091538 11356","category":"Other"}]}